Organization,Name,Street Address,lat,lon,Organization,Name,Street Address,lat,lon,distance (km)
Strive Together,Achieve Brown County, Green Bay WI,44.5283629,-88.1040752,YBUSA,American YouthWorks,"1901 E. Ben White Bv	Austin	TX	78741",30.21537,-97.747365,1802.81177
Strive Together,Achieve Brown County, Green Bay WI,44.5283629,-88.1040752,YBUSA,AMIkids Baton Rouge,"5555 Beechwood Drive	Baton Rouge	LA	70805",30.50109,-91.14448,1582.825062
Strive Together,Achieve Brown County, Green Bay WI,44.5283629,-88.1040752,YBUSA,AMIkids Beaufort Inc.,"60 Honeybee Island Road	Seabrook	SC	29940",32.56899,-80.68511,1476.963086
Strive Together,Achieve Brown County, Green Bay WI,44.5283629,-88.1040752,YBUSA,Antelope Valley YouthBuild,"38626 9th Street East	Palmdale	CA	93550",34.58539,-118.11403,2780.912329
Strive Together,Achieve Brown County, Green Bay WI,44.5283629,-88.1040752,YBUSA,Arrowhead YouthBuild,"702 Third Avenue	Virginia	MN	55792",47.51762,-92.53375,476.926971
Strive Together,Achieve Brown County, Green Bay WI,44.5283629,-88.1040752,YBUSA,Asian Media Access,"2418 Plymouth Ave N	Minneapolis	MN	55411",44.99179,-93.31169,414.4410335
Strive Together,Achieve Brown County, Green Bay WI,44.5283629,-88.1040752,YBUSA,Aurora YouthBuild,"1685 N Farnsworth Ave.	Aurora	IL	60505",41.791075,-88.281367,304.8074642
Strive Together,Achieve Brown County, Green Bay WI,44.5283629,-88.1040752,YBUSA,Beloit Fresh Start,"20 Eclipse Center	Beloit	WI	53511",42.52033,-89.03186,235.5492773
Strive Together,Achieve Brown County, Green Bay WI,44.5283629,-88.1040752,YBUSA,Benton Harbor YouthBuild,"315 East Main Street	Benton Harbor	MI	49022",42.11733,-86.45102,299.6707493
Strive Together,Achieve Brown County, Green Bay WI,44.5283629,-88.1040752,YBUSA,Bethel YouthBuild,"1250 Portland Avenue	Chicago Heights	IL	60411",41.50823,-87.62403,338.1878117
Strive Together,Achieve Brown County, Green Bay WI,44.5283629,-88.1040752,YBUSA,Bibb County School District,"2011 Riverside Dr.	Macon	GA	31204",32.856935,-83.643415,1354.167502
Strive Together,Achieve Brown County, Green Bay WI,44.5283629,-88.1040752,YBUSA,BI-CAP YouthBuild,"3023 Mill St NE	Bemidji	MN	56601",47.46806,-94.83356,613.9117582
Strive Together,Achieve Brown County, Green Bay WI,44.5283629,-88.1040752,YBUSA,Build With Pride,"4283 El Cajon Boulevard	San Diego	CA	92105",32.754885,-117.102191,2818.322929
Strive Together,Achieve Brown County, Green Bay WI,44.5283629,-88.1040752,YBUSA,Building Futures YouthBuild,"5800 Godfrey Road	Godfrey	IL	62035",38.95288,-90.19333,643.8819829
Strive Together,Achieve Escambia, Pensacola FL,30.4793799,-87.2040881,YBUSA,American YouthWorks,"1901 E. Ben White Bv	Austin	TX	78741",30.21537,-97.747365,1012.096563
Strive Together,Achieve Escambia, Pensacola FL,30.4793799,-87.2040881,YBUSA,AMIkids Baton Rouge,"5555 Beechwood Drive	Baton Rouge	LA	70805",30.50109,-91.14448,377.6691529
Strive Together,Achieve Escambia, Pensacola FL,30.4793799,-87.2040881,YBUSA,AMIkids Beaufort Inc.,"60 Honeybee Island Road	Seabrook	SC	29940",32.56899,-80.68511,660.1961798
Strive Together,Achieve Escambia, Pensacola FL,30.4793799,-87.2040881,YBUSA,Antelope Valley YouthBuild,"38626 9th Street East	Palmdale	CA	93550",34.58539,-118.11403,2922.77223
Strive Together,Achieve Escambia, Pensacola FL,30.4793799,-87.2040881,YBUSA,Arrowhead YouthBuild,"702 Third Avenue	Virginia	MN	55792",47.51762,-92.53375,1949.144803
Strive Together,Achieve Escambia, Pensacola FL,30.4793799,-87.2040881,YBUSA,Asian Media Access,"2418 Plymouth Ave N	Minneapolis	MN	55411",44.99179,-93.31169,1699.968873
Strive Together,Achieve Escambia, Pensacola FL,30.4793799,-87.2040881,YBUSA,Aurora YouthBuild,"1685 N Farnsworth Ave.	Aurora	IL	60505",41.791075,-88.281367,1261.882738
Strive Together,Achieve Escambia, Pensacola FL,30.4793799,-87.2040881,YBUSA,Beloit Fresh Start,"20 Eclipse Center	Beloit	WI	53511",42.52033,-89.03186,1349.150102
Strive Together,Achieve Escambia, Pensacola FL,30.4793799,-87.2040881,YBUSA,Benton Harbor YouthBuild,"315 East Main Street	Benton Harbor	MI	49022",42.11733,-86.45102,1296.230511
Strive Together,Achieve Escambia, Pensacola FL,30.4793799,-87.2040881,YBUSA,Bethel YouthBuild,"1250 Portland Avenue	Chicago Heights	IL	60411",41.50823,-87.62403,1227.314502
Strive Together,Achieve Escambia, Pensacola FL,30.4793799,-87.2040881,YBUSA,Bibb County School District,"2011 Riverside Dr.	Macon	GA	31204",32.856935,-83.643415,428.3873552
Strive Together,Achieve Escambia, Pensacola FL,30.4793799,-87.2040881,YBUSA,BI-CAP YouthBuild,"3023 Mill St NE	Bemidji	MN	56601",47.46806,-94.83356,1999.070613
Strive Together,Achieve Escambia, Pensacola FL,30.4793799,-87.2040881,YBUSA,Build With Pride,"4283 El Cajon Boulevard	San Diego	CA	92105",32.754885,-117.102191,2833.874413
Strive Together,Achieve Escambia, Pensacola FL,30.4793799,-87.2040881,YBUSA,Building Futures YouthBuild,"5800 Godfrey Road	Godfrey	IL	62035",38.95288,-90.19333,981.1597145
Strive Together,Alamance Achieves, Burlington NC,36.0927,-79.4375913,YBUSA,American YouthWorks,"1901 E. Ben White Bv	Austin	TX	78741",30.21537,-97.747365,1822.43512
Strive Together,Alamance Achieves, Burlington NC,36.0927,-79.4375913,YBUSA,AMIkids Baton Rouge,"5555 Beechwood Drive	Baton Rouge	LA	70805",30.50109,-91.14448,1252.203815
Strive Together,Alamance Achieves, Burlington NC,36.0927,-79.4375913,YBUSA,AMIkids Beaufort Inc.,"60 Honeybee Island Road	Seabrook	SC	29940",32.56899,-80.68511,408.3364694
Strive Together,Alamance Achieves, Burlington NC,36.0927,-79.4375913,YBUSA,Antelope Valley YouthBuild,"38626 9th Street East	Palmdale	CA	93550",34.58539,-118.11403,3490.141425
Strive Together,Alamance Achieves, Burlington NC,36.0927,-79.4375913,YBUSA,Arrowhead YouthBuild,"702 Third Avenue	Virginia	MN	55792",47.51762,-92.53375,1666.839138
Strive Together,Alamance Achieves, Burlington NC,36.0927,-79.4375913,YBUSA,Asian Media Access,"2418 Plymouth Ave N	Minneapolis	MN	55411",44.99179,-93.31169,1530.814491
Strive Together,Alamance Achieves, Burlington NC,36.0927,-79.4375913,YBUSA,Aurora YouthBuild,"1685 N Farnsworth Ave.	Aurora	IL	60505",41.791075,-88.281367,992.5867215
Strive Together,Alamance Achieves, Burlington NC,36.0927,-79.4375913,YBUSA,Beloit Fresh Start,"20 Eclipse Center	Beloit	WI	53511",42.52033,-89.03186,1090.962434
Strive Together,Alamance Achieves, Burlington NC,36.0927,-79.4375913,YBUSA,Benton Harbor YouthBuild,"315 East Main Street	Benton Harbor	MI	49022",42.11733,-86.45102,902.3973876
Strive Together,Alamance Achieves, Burlington NC,36.0927,-79.4375913,YBUSA,Bethel YouthBuild,"1250 Portland Avenue	Chicago Heights	IL	60411",41.50823,-87.62403,930.053824
Strive Together,Alamance Achieves, Burlington NC,36.0927,-79.4375913,YBUSA,Bibb County School District,"2011 Riverside Dr.	Macon	GA	31204",32.856935,-83.643415,527.3988023
Strive Together,Alamance Achieves, Burlington NC,36.0927,-79.4375913,YBUSA,BI-CAP YouthBuild,"3023 Mill St NE	Bemidji	MN	56601",47.46806,-94.83356,1791.394247
Strive Together,Alamance Achieves, Burlington NC,36.0927,-79.4375913,YBUSA,Build With Pride,"4283 El Cajon Boulevard	San Diego	CA	92105",32.754885,-117.102191,3454.142303
Strive Together,Alamance Achieves, Burlington NC,36.0927,-79.4375913,YBUSA,Building Futures YouthBuild,"5800 Godfrey Road	Godfrey	IL	62035",38.95288,-90.19333,1000.009477
Strive Together,Aligned Impact Muscatine County, Muscatine IA,41.4203142,-91.0470178,YBUSA,American YouthWorks,"1901 E. Ben White Bv	Austin	TX	78741",30.21537,-97.747365,1383.983138
Strive Together,Aligned Impact Muscatine County, Muscatine IA,41.4203142,-91.0470178,YBUSA,AMIkids Baton Rouge,"5555 Beechwood Drive	Baton Rouge	LA	70805",30.50109,-91.14448,1214.574936
Strive Together,Aligned Impact Muscatine County, Muscatine IA,41.4203142,-91.0470178,YBUSA,AMIkids Beaufort Inc.,"60 Honeybee Island Road	Seabrook	SC	29940",32.56899,-80.68511,1345.840202
Strive Together,Aligned Impact Muscatine County, Muscatine IA,41.4203142,-91.0470178,YBUSA,Antelope Valley YouthBuild,"38626 9th Street East	Palmdale	CA	93550",34.58539,-118.11403,2479.297683
Strive Together,Aligned Impact Muscatine County, Muscatine IA,41.4203142,-91.0470178,YBUSA,Arrowhead YouthBuild,"702 Third Avenue	Virginia	MN	55792",47.51762,-92.53375,688.3557967
Strive Together,Aligned Impact Muscatine County, Muscatine IA,41.4203142,-91.0470178,YBUSA,Asian Media Access,"2418 Plymouth Ave N	Minneapolis	MN	55411",44.99179,-93.31169,437.5858892
Strive Together,Aligned Impact Muscatine County, Muscatine IA,41.4203142,-91.0470178,YBUSA,Aurora YouthBuild,"1685 N Farnsworth Ave.	Aurora	IL	60505",41.791075,-88.281367,233.6761196
Strive Together,Aligned Impact Muscatine County, Muscatine IA,41.4203142,-91.0470178,YBUSA,Beloit Fresh Start,"20 Eclipse Center	Beloit	WI	53511",42.52033,-89.03186,206.7335949
Strive Together,Aligned Impact Muscatine County, Muscatine IA,41.4203142,-91.0470178,YBUSA,Benton Harbor YouthBuild,"315 East Main Street	Benton Harbor	MI	49022",42.11733,-86.45102,389.0318522
Strive Together,Aligned Impact Muscatine County, Muscatine IA,41.4203142,-91.0470178,YBUSA,Bethel YouthBuild,"1250 Portland Avenue	Chicago Heights	IL	60411",41.50823,-87.62403,285.4622784
Strive Together,Aligned Impact Muscatine County, Muscatine IA,41.4203142,-91.0470178,YBUSA,Bibb County School District,"2011 Riverside Dr.	Macon	GA	31204",32.856935,-83.643415,1155.776493
Strive Together,Aligned Impact Muscatine County, Muscatine IA,41.4203142,-91.0470178,YBUSA,BI-CAP YouthBuild,"3023 Mill St NE	Bemidji	MN	56601",47.46806,-94.83356,736.6033201
Strive Together,Aligned Impact Muscatine County, Muscatine IA,41.4203142,-91.0470178,YBUSA,Build With Pride,"4283 El Cajon Boulevard	San Diego	CA	92105",32.754885,-117.102191,2492.420178
Strive Together,Aligned Impact Muscatine County, Muscatine IA,41.4203142,-91.0470178,YBUSA,Building Futures YouthBuild,"5800 Godfrey Road	Godfrey	IL	62035",38.95288,-90.19333,283.8726213
Strive Together,All Hands Raised, Portland OR,45.5273597,-122.6447925,YBUSA,American YouthWorks,"1901 E. Ben White Bv	Austin	TX	78741",30.21537,-97.747365,2751.478233
Strive Together,All Hands Raised, Portland OR,45.5273597,-122.6447925,YBUSA,AMIkids Baton Rouge,"5555 Beechwood Drive	Baton Rouge	LA	70805",30.50109,-91.14448,3196.151873
Strive Together,All Hands Raised, Portland OR,45.5273597,-122.6447925,YBUSA,AMIkids Beaufort Inc.,"60 Honeybee Island Road	Seabrook	SC	29940",32.56899,-80.68511,3848.24359
Strive Together,All Hands Raised, Portland OR,45.5273597,-122.6447925,YBUSA,Antelope Valley YouthBuild,"38626 9th Street East	Palmdale	CA	93550",34.58539,-118.11403,1276.170751
Strive Together,All Hands Raised, Portland OR,45.5273597,-122.6447925,YBUSA,Arrowhead YouthBuild,"702 Third Avenue	Virginia	MN	55792",47.51762,-92.53375,2300.564928
Strive Together,All Hands Raised, Portland OR,45.5273597,-122.6447925,YBUSA,Asian Media Access,"2418 Plymouth Ave N	Minneapolis	MN	55411",44.99179,-93.31169,2284.557372
Strive Together,All Hands Raised, Portland OR,45.5273597,-122.6447925,YBUSA,Aurora YouthBuild,"1685 N Farnsworth Ave.	Aurora	IL	60505",41.791075,-88.281367,2774.607762
Strive Together,All Hands Raised, Portland OR,45.5273597,-122.6447925,YBUSA,Beloit Fresh Start,"20 Eclipse Center	Beloit	WI	53511",42.52033,-89.03186,2689.146761
Strive Together,All Hands Raised, Portland OR,45.5273597,-122.6447925,YBUSA,Benton Harbor YouthBuild,"315 East Main Street	Benton Harbor	MI	49022",42.11733,-86.45102,2904.262387
Strive Together,All Hands Raised, Portland OR,45.5273597,-122.6447925,YBUSA,Bethel YouthBuild,"1250 Portland Avenue	Chicago Heights	IL	60411",41.50823,-87.62403,2836.828259
Strive Together,All Hands Raised, Portland OR,45.5273597,-122.6447925,YBUSA,Bibb County School District,"2011 Riverside Dr.	Macon	GA	31204",32.856935,-83.643415,3601.91819
Strive Together,All Hands Raised, Portland OR,45.5273597,-122.6447925,YBUSA,BI-CAP YouthBuild,"3023 Mill St NE	Bemidji	MN	56601",47.46806,-94.83356,2128.897672
Strive Together,All Hands Raised, Portland OR,45.5273597,-122.6447925,YBUSA,Build With Pride,"4283 El Cajon Boulevard	San Diego	CA	92105",32.754885,-117.102191,1498.017671
Strive Together,All Hands Raised, Portland OR,45.5273597,-122.6447925,YBUSA,Building Futures YouthBuild,"5800 Godfrey Road	Godfrey	IL	62035",38.95288,-90.19333,2749.783355
Strive Together,Aspire, Toledo OH,41.7041482,-83.5897269,YBUSA,American YouthWorks,"1901 E. Ben White Bv	Austin	TX	78741",30.21537,-97.747365,1800.225136
Strive Together,Aspire, Toledo OH,41.7041482,-83.5897269,YBUSA,AMIkids Baton Rouge,"5555 Beechwood Drive	Baton Rouge	LA	70805",30.50109,-91.14448,1417.642683
Strive Together,Aspire, Toledo OH,41.7041482,-83.5897269,YBUSA,AMIkids Beaufort Inc.,"60 Honeybee Island Road	Seabrook	SC	29940",32.56899,-80.68511,1048.051579
Strive Together,Aspire, Toledo OH,41.7041482,-83.5897269,YBUSA,Antelope Valley YouthBuild,"38626 9th Street East	Palmdale	CA	93550",34.58539,-118.11403,3099.542783
Strive Together,Aspire, Toledo OH,41.7041482,-83.5897269,YBUSA,Arrowhead YouthBuild,"702 Third Avenue	Virginia	MN	55792",47.51762,-92.53375,957.8720224
Strive Together,Aspire, Toledo OH,41.7041482,-83.5897269,YBUSA,Asian Media Access,"2418 Plymouth Ave N	Minneapolis	MN	55411",44.99179,-93.31169,866.4772143
Strive Together,Aspire, Toledo OH,41.7041482,-83.5897269,YBUSA,Aurora YouthBuild,"1685 N Farnsworth Ave.	Aurora	IL	60505",41.791075,-88.281367,389.4164683
Strive Together,Aspire, Toledo OH,41.7041482,-83.5897269,YBUSA,Beloit Fresh Start,"20 Eclipse Center	Beloit	WI	53511",42.52033,-89.03186,458.0493157
Strive Together,Aspire, Toledo OH,41.7041482,-83.5897269,YBUSA,Benton Harbor YouthBuild,"315 East Main Street	Benton Harbor	MI	49022",42.11733,-86.45102,241.2508256
Strive Together,Aspire, Toledo OH,41.7041482,-83.5897269,YBUSA,Bethel YouthBuild,"1250 Portland Avenue	Chicago Heights	IL	60411",41.50823,-87.62403,336.2067588
Strive Together,Aspire, Toledo OH,41.7041482,-83.5897269,YBUSA,Bibb County School District,"2011 Riverside Dr.	Macon	GA	31204",32.856935,-83.643415,984.0854576
Strive Together,Aspire, Toledo OH,41.7041482,-83.5897269,YBUSA,BI-CAP YouthBuild,"3023 Mill St NE	Bemidji	MN	56601",47.46806,-94.83356,1095.681509
Strive Together,Aspire, Toledo OH,41.7041482,-83.5897269,YBUSA,Build With Pride,"4283 El Cajon Boulevard	San Diego	CA	92105",32.754885,-117.102191,3107.583529
Strive Together,Aspire, Toledo OH,41.7041482,-83.5897269,YBUSA,Building Futures YouthBuild,"5800 Godfrey Road	Godfrey	IL	62035",38.95288,-90.19333,637.8603597
Strive Together,Austin Aspires, Austin MN,43.6684521,-92.9753123,YBUSA,American YouthWorks,"1901 E. Ben White Bv	Austin	TX	78741",30.21537,-97.747365,1554.627374
Strive Together,Austin Aspires, Austin MN,43.6684521,-92.9753123,YBUSA,AMIkids Baton Rouge,"5555 Beechwood Drive	Baton Rouge	LA	70805",30.50109,-91.14448,1473.478202
Strive Together,Austin Aspires, Austin MN,43.6684521,-92.9753123,YBUSA,AMIkids Beaufort Inc.,"60 Honeybee Island Road	Seabrook	SC	29940",32.56899,-80.68511,1633.672142
Strive Together,Austin Aspires, Austin MN,43.6684521,-92.9753123,YBUSA,Antelope Valley YouthBuild,"38626 9th Street East	Palmdale	CA	93550",34.58539,-118.11403,2380.347019
Strive Together,Austin Aspires, Austin MN,43.6684521,-92.9753123,YBUSA,Arrowhead YouthBuild,"702 Third Avenue	Virginia	MN	55792",47.51762,-92.53375,429.5173637
Strive Together,Austin Aspires, Austin MN,43.6684521,-92.9753123,YBUSA,Asian Media Access,"2418 Plymouth Ave N	Minneapolis	MN	55411",44.99179,-93.31169,149.607679
Strive Together,Austin Aspires, Austin MN,43.6684521,-92.9753123,YBUSA,Aurora YouthBuild,"1685 N Farnsworth Ave.	Aurora	IL	60505",41.791075,-88.281367,436.5875688
Strive Together,Austin Aspires, Austin MN,43.6684521,-92.9753123,YBUSA,Beloit Fresh Start,"20 Eclipse Center	Beloit	WI	53511",42.52033,-89.03186,344.7745132
Strive Together,Austin Aspires, Austin MN,43.6684521,-92.9753123,YBUSA,Benton Harbor YouthBuild,"315 East Main Street	Benton Harbor	MI	49022",42.11733,-86.45102,558.7761513
Strive Together,Austin Aspires, Austin MN,43.6684521,-92.9753123,YBUSA,Bethel YouthBuild,"1250 Portland Avenue	Chicago Heights	IL	60411",41.50823,-87.62403,499.6302119
Strive Together,Austin Aspires, Austin MN,43.6684521,-92.9753123,YBUSA,Bibb County School District,"2011 Riverside Dr.	Macon	GA	31204",32.856935,-83.643415,1450.574409
Strive Together,Austin Aspires, Austin MN,43.6684521,-92.9753123,YBUSA,BI-CAP YouthBuild,"3023 Mill St NE	Bemidji	MN	56601",47.46806,-94.83356,446.6772507
Strive Together,Austin Aspires, Austin MN,43.6684521,-92.9753123,YBUSA,Build With Pride,"4283 El Cajon Boulevard	San Diego	CA	92105",32.754885,-117.102191,2419.89931
Strive Together,Austin Aspires, Austin MN,43.6684521,-92.9753123,YBUSA,Building Futures YouthBuild,"5800 Godfrey Road	Godfrey	IL	62035",38.95288,-90.19333,573.6133657
Strive Together,Baltimore's Promise, Baltimore MD,39.3558582,-76.6455333,YBUSA,American YouthWorks,"1901 E. Ben White Bv	Austin	TX	78741",30.21537,-97.747365,2171.766876
Strive Together,Baltimore's Promise, Baltimore MD,39.3558582,-76.6455333,YBUSA,AMIkids Baton Rouge,"5555 Beechwood Drive	Baton Rouge	LA	70805",30.50109,-91.14448,1645.188775
Strive Together,Baltimore's Promise, Baltimore MD,39.3558582,-76.6455333,YBUSA,AMIkids Beaufort Inc.,"60 Honeybee Island Road	Seabrook	SC	29940",32.56899,-80.68511,837.6894985
Strive Together,Baltimore's Promise, Baltimore MD,39.3558582,-76.6455333,YBUSA,Antelope Valley YouthBuild,"38626 9th Street East	Palmdale	CA	93550",34.58539,-118.11403,3690.574403
Strive Together,Baltimore's Promise, Baltimore MD,39.3558582,-76.6455333,YBUSA,Arrowhead YouthBuild,"702 Third Avenue	Virginia	MN	55792",47.51762,-92.53375,1567.040677
Strive Together,Baltimore's Promise, Baltimore MD,39.3558582,-76.6455333,YBUSA,Asian Media Access,"2418 Plymouth Ave N	Minneapolis	MN	55411",44.99179,-93.31169,1506.374804
Strive Together,Baltimore's Promise, Baltimore MD,39.3558582,-76.6455333,YBUSA,Aurora YouthBuild,"1685 N Farnsworth Ave.	Aurora	IL	60505",41.791075,-88.281367,1018.793102
Strive Together,Baltimore's Promise, Baltimore MD,39.3558582,-76.6455333,YBUSA,Beloit Fresh Start,"20 Eclipse Center	Beloit	WI	53511",42.52033,-89.03186,1097.435548
Strive Together,Baltimore's Promise, Baltimore MD,39.3558582,-76.6455333,YBUSA,Benton Harbor YouthBuild,"315 East Main Street	Benton Harbor	MI	49022",42.11733,-86.45102,881.004868
Strive Together,Baltimore's Promise, Baltimore MD,39.3558582,-76.6455333,YBUSA,Bethel YouthBuild,"1250 Portland Avenue	Chicago Heights	IL	60411",41.50823,-87.62403,959.0873982
Strive Together,Baltimore's Promise, Baltimore MD,39.3558582,-76.6455333,YBUSA,Bibb County School District,"2011 Riverside Dr.	Macon	GA	31204",32.856935,-83.643415,957.4693416
Strive Together,Baltimore's Promise, Baltimore MD,39.3558582,-76.6455333,YBUSA,BI-CAP YouthBuild,"3023 Mill St NE	Bemidji	MN	56601",47.46806,-94.83356,1718.145113
Strive Together,Baltimore's Promise, Baltimore MD,39.3558582,-76.6455333,YBUSA,Build With Pride,"4283 El Cajon Boulevard	San Diego	CA	92105",32.754885,-117.102191,3679.728542
Strive Together,Baltimore's Promise, Baltimore MD,39.3558582,-76.6455333,YBUSA,Building Futures YouthBuild,"5800 Godfrey Road	Godfrey	IL	62035",38.95288,-90.19333,1168.301152
Strive Together,Better Together Central Oregon, Redmond OR,44.2499692,-121.1732335,YBUSA,American YouthWorks,"1901 E. Ben White Bv	Austin	TX	78741",30.21537,-97.747365,2580.622878
Strive Together,Better Together Central Oregon, Redmond OR,44.2499692,-121.1732335,YBUSA,AMIkids Baton Rouge,"5555 Beechwood Drive	Baton Rouge	LA	70805",30.50109,-91.14448,3038.128842
Strive Together,Better Together Central Oregon, Redmond OR,44.2499692,-121.1732335,YBUSA,AMIkids Beaufort Inc.,"60 Honeybee Island Road	Seabrook	SC	29940",32.56899,-80.68511,3716.346478
Strive Together,Better Together Central Oregon, Redmond OR,44.2499692,-121.1732335,YBUSA,Antelope Valley YouthBuild,"38626 9th Street East	Palmdale	CA	93550",34.58539,-118.11403,1106.436789
Strive Together,Better Together Central Oregon, Redmond OR,44.2499692,-121.1732335,YBUSA,Arrowhead YouthBuild,"702 Third Avenue	Virginia	MN	55792",47.51762,-92.53375,2233.999365
Strive Together,Better Together Central Oregon, Redmond OR,44.2499692,-121.1732335,YBUSA,Asian Media Access,"2418 Plymouth Ave N	Minneapolis	MN	55411",44.99179,-93.31169,2196.454088
Strive Together,Better Together Central Oregon, Redmond OR,44.2499692,-121.1732335,YBUSA,Aurora YouthBuild,"1685 N Farnsworth Ave.	Aurora	IL	60505",41.791075,-88.281367,2670.733619
Strive Together,Better Together Central Oregon, Redmond OR,44.2499692,-121.1732335,YBUSA,Beloit Fresh Start,"20 Eclipse Center	Beloit	WI	53511",42.52033,-89.03186,2588.679539
Strive Together,Better Together Central Oregon, Redmond OR,44.2499692,-121.1732335,YBUSA,Benton Harbor YouthBuild,"315 East Main Street	Benton Harbor	MI	49022",42.11733,-86.45102,2805.054703
Strive Together,Better Together Central Oregon, Redmond OR,44.2499692,-121.1732335,YBUSA,Bethel YouthBuild,"1250 Portland Avenue	Chicago Heights	IL	60411",41.50823,-87.62403,2732.280327
Strive Together,Better Together Central Oregon, Redmond OR,44.2499692,-121.1732335,YBUSA,Bibb County School District,"2011 Riverside Dr.	Macon	GA	31204",32.856935,-83.643415,3465.470499
Strive Together,Better Together Central Oregon, Redmond OR,44.2499692,-121.1732335,YBUSA,BI-CAP YouthBuild,"3023 Mill St NE	Bemidji	MN	56601",47.46806,-94.83356,2061.217511
Strive Together,Better Together Central Oregon, Redmond OR,44.2499692,-121.1732335,YBUSA,Build With Pride,"4283 El Cajon Boulevard	San Diego	CA	92105",32.754885,-117.102191,1326.326518
Strive Together,Better Together Central Oregon, Redmond OR,44.2499692,-121.1732335,YBUSA,Building Futures YouthBuild,"5800 Godfrey Road	Godfrey	IL	62035",38.95288,-90.19333,2626.560597
Strive Together,Bold Goals Coalition, Birmingham AL,33.5157399,-86.7765441,YBUSA,American YouthWorks,"1901 E. Ben White Bv	Austin	TX	78741",30.21537,-97.747365,1098.759465
Strive Together,Bold Goals Coalition, Birmingham AL,33.5157399,-86.7765441,YBUSA,AMIkids Baton Rouge,"5555 Beechwood Drive	Baton Rouge	LA	70805",30.50109,-91.14448,531.092992
Strive Together,Bold Goals Coalition, Birmingham AL,33.5157399,-86.7765441,YBUSA,AMIkids Beaufort Inc.,"60 Honeybee Island Road	Seabrook	SC	29940",32.56899,-80.68511,577.554864
Strive Together,Bold Goals Coalition, Birmingham AL,33.5157399,-86.7765441,YBUSA,Antelope Valley YouthBuild,"38626 9th Street East	Palmdale	CA	93550",34.58539,-118.11403,2878.876244
Strive Together,Bold Goals Coalition, Birmingham AL,33.5157399,-86.7765441,YBUSA,Arrowhead YouthBuild,"702 Third Avenue	Virginia	MN	55792",47.51762,-92.53375,1630.555822
Strive Together,Bold Goals Coalition, Birmingham AL,33.5157399,-86.7765441,YBUSA,Asian Media Access,"2418 Plymouth Ave N	Minneapolis	MN	55411",44.99179,-93.31169,1393.881032
Strive Together,Bold Goals Coalition, Birmingham AL,33.5157399,-86.7765441,YBUSA,Aurora YouthBuild,"1685 N Farnsworth Ave.	Aurora	IL	60505",41.791075,-88.281367,929.9086109
Strive Together,Bold Goals Coalition, Birmingham AL,33.5157399,-86.7765441,YBUSA,Beloit Fresh Start,"20 Eclipse Center	Beloit	WI	53511",42.52033,-89.03186,1020.778316
Strive Together,Bold Goals Coalition, Birmingham AL,33.5157399,-86.7765441,YBUSA,Benton Harbor YouthBuild,"315 East Main Street	Benton Harbor	MI	49022",42.11733,-86.45102,957.1786518
Strive Together,Bold Goals Coalition, Birmingham AL,33.5157399,-86.7765441,YBUSA,Bethel YouthBuild,"1250 Portland Avenue	Chicago Heights	IL	60411",41.50823,-87.62403,892.1283156
Strive Together,Bold Goals Coalition, Birmingham AL,33.5157399,-86.7765441,YBUSA,Bibb County School District,"2011 Riverside Dr.	Macon	GA	31204",32.856935,-83.643415,300.7063937
Strive Together,Bold Goals Coalition, Birmingham AL,33.5157399,-86.7765441,YBUSA,BI-CAP YouthBuild,"3023 Mill St NE	Bemidji	MN	56601",47.46806,-94.83356,1692.711773
Strive Together,Bold Goals Coalition, Birmingham AL,33.5157399,-86.7765441,YBUSA,Build With Pride,"4283 El Cajon Boulevard	San Diego	CA	92105",32.754885,-117.102191,2815.774406
Strive Together,Bold Goals Coalition, Birmingham AL,33.5157399,-86.7765441,YBUSA,Building Futures YouthBuild,"5800 Godfrey Road	Godfrey	IL	62035",38.95288,-90.19333,677.8850176
Strive Together,Boston Opportunity Agenda, Boston MA,42.3511243,-71.0726395,YBUSA,American YouthWorks,"1901 E. Ben White Bv	Austin	TX	78741",30.21537,-97.747365,2729.40407
Strive Together,Boston Opportunity Agenda, Boston MA,42.3511243,-71.0726395,YBUSA,AMIkids Baton Rouge,"5555 Beechwood Drive	Baton Rouge	LA	70805",30.50109,-91.14448,2218.611863
Strive Together,Boston Opportunity Agenda, Boston MA,42.3511243,-71.0726395,YBUSA,AMIkids Beaufort Inc.,"60 Honeybee Island Road	Seabrook	SC	29940",32.56899,-80.68511,1377.938376
Strive Together,Boston Opportunity Agenda, Boston MA,42.3511243,-71.0726395,YBUSA,Antelope Valley YouthBuild,"38626 9th Street East	Palmdale	CA	93550",34.58539,-118.11403,4132.521749
Strive Together,Boston Opportunity Agenda, Boston MA,42.3511243,-71.0726395,YBUSA,Arrowhead YouthBuild,"702 Third Avenue	Virginia	MN	55792",47.51762,-92.53375,1778.057769
Strive Together,Boston Opportunity Agenda, Boston MA,42.3511243,-71.0726395,YBUSA,Asian Media Access,"2418 Plymouth Ave N	Minneapolis	MN	55411",44.99179,-93.31169,1807.258013
Strive Together,Boston Opportunity Agenda, Boston MA,42.3511243,-71.0726395,YBUSA,Aurora YouthBuild,"1685 N Farnsworth Ave.	Aurora	IL	60505",41.791075,-88.281367,1419.819962
Strive Together,Boston Opportunity Agenda, Boston MA,42.3511243,-71.0726395,YBUSA,Beloit Fresh Start,"20 Eclipse Center	Beloit	WI	53511",42.52033,-89.03186,1471.656323
Strive Together,Boston Opportunity Agenda, Boston MA,42.3511243,-71.0726395,YBUSA,Benton Harbor YouthBuild,"315 East Main Street	Benton Harbor	MI	49022",42.11733,-86.45102,1265.025951
Strive Together,Boston Opportunity Agenda, Boston MA,42.3511243,-71.0726395,YBUSA,Bethel YouthBuild,"1250 Portland Avenue	Chicago Heights	IL	60411",41.50823,-87.62403,1370.679381
Strive Together,Boston Opportunity Agenda, Boston MA,42.3511243,-71.0726395,YBUSA,Bibb County School District,"2011 Riverside Dr.	Macon	GA	31204",32.856935,-83.643415,1527.310924
Strive Together,Boston Opportunity Agenda, Boston MA,42.3511243,-71.0726395,YBUSA,BI-CAP YouthBuild,"3023 Mill St NE	Bemidji	MN	56601",47.46806,-94.83356,1947.57515
Strive Together,Boston Opportunity Agenda, Boston MA,42.3511243,-71.0726395,YBUSA,Build With Pride,"4283 El Cajon Boulevard	San Diego	CA	92105",32.754885,-117.102191,4143.325602
Strive Together,Boston Opportunity Agenda, Boston MA,42.3511243,-71.0726395,YBUSA,Building Futures YouthBuild,"5800 Godfrey Road	Godfrey	IL	62035",38.95288,-90.19333,1653.383103
Strive Together,Bridge to Success Community Partnership, Waterbury CT,41.5651369,-73.0353244,YBUSA,American YouthWorks,"1901 E. Ben White Bv	Austin	TX	78741",30.21537,-97.747365,2546.380898
Strive Together,Bridge to Success Community Partnership, Waterbury CT,41.5651369,-73.0353244,YBUSA,AMIkids Baton Rouge,"5555 Beechwood Drive	Baton Rouge	LA	70805",30.50109,-91.14448,2034.389459
Strive Together,Bridge to Success Community Partnership, Waterbury CT,41.5651369,-73.0353244,YBUSA,AMIkids Beaufort Inc.,"60 Honeybee Island Road	Seabrook	SC	29940",32.56899,-80.68511,1208.0677
Strive Together,Bridge to Success Community Partnership, Waterbury CT,41.5651369,-73.0353244,YBUSA,Antelope Valley YouthBuild,"38626 9th Street East	Palmdale	CA	93550",34.58539,-118.11403,3976.467297
Strive Together,Bridge to Success Community Partnership, Waterbury CT,41.5651369,-73.0353244,YBUSA,Arrowhead YouthBuild,"702 Third Avenue	Virginia	MN	55792",47.51762,-92.53375,1675.737128
Strive Together,Bridge to Success Community Partnership, Waterbury CT,41.5651369,-73.0353244,YBUSA,Asian Media Access,"2418 Plymouth Ave N	Minneapolis	MN	55411",44.99179,-93.31169,1680.791354
Strive Together,Bridge to Success Community Partnership, Waterbury CT,41.5651369,-73.0353244,YBUSA,Aurora YouthBuild,"1685 N Farnsworth Ave.	Aurora	IL	60505",41.791075,-88.281367,1265.179788
Strive Together,Bridge to Success Community Partnership, Waterbury CT,41.5651369,-73.0353244,YBUSA,Beloit Fresh Start,"20 Eclipse Center	Beloit	WI	53511",42.52033,-89.03186,1323.669297
Strive Together,Bridge to Success Community Partnership, Waterbury CT,41.5651369,-73.0353244,YBUSA,Benton Harbor YouthBuild,"315 East Main Street	Benton Harbor	MI	49022",42.11733,-86.45102,1112.251628
Strive Together,Bridge to Success Community Partnership, Waterbury CT,41.5651369,-73.0353244,YBUSA,Bethel YouthBuild,"1250 Portland Avenue	Chicago Heights	IL	60411",41.50823,-87.62403,1213.210141
Strive Together,Bridge to Success Community Partnership, Waterbury CT,41.5651369,-73.0353244,YBUSA,Bibb County School District,"2011 Riverside Dr.	Macon	GA	31204",32.856935,-83.643415,1347.480972
Strive Together,Bridge to Success Community Partnership, Waterbury CT,41.5651369,-73.0353244,YBUSA,BI-CAP YouthBuild,"3023 Mill St NE	Bemidji	MN	56601",47.46806,-94.83356,1841.72573
Strive Together,Bridge to Success Community Partnership, Waterbury CT,41.5651369,-73.0353244,YBUSA,Build With Pride,"4283 El Cajon Boulevard	San Diego	CA	92105",32.754885,-117.102191,3981.74227
Strive Together,Bridge to Success Community Partnership, Waterbury CT,41.5651369,-73.0353244,YBUSA,Building Futures YouthBuild,"5800 Godfrey Road	Godfrey	IL	62035",38.95288,-90.19333,1482.492745
Strive Together,Bridgeport Prospers, Bridgeport CT,41.1792402,-73.1894193,YBUSA,American YouthWorks,"1901 E. Ben White Bv	Austin	TX	78741",30.21537,-97.747365,2518.714742
Strive Together,Bridgeport Prospers, Bridgeport CT,41.1792402,-73.1894193,YBUSA,AMIkids Baton Rouge,"5555 Beechwood Drive	Baton Rouge	LA	70805",30.50109,-91.14448,2001.227157
Strive Together,Bridgeport Prospers, Bridgeport CT,41.1792402,-73.1894193,YBUSA,AMIkids Beaufort Inc.,"60 Honeybee Island Road	Seabrook	SC	29940",32.56899,-80.68511,1166.007295
Strive Together,Bridgeport Prospers, Bridgeport CT,41.1792402,-73.1894193,YBUSA,Antelope Valley YouthBuild,"38626 9th Street East	Palmdale	CA	93550",34.58539,-118.11403,3966.668239
Strive Together,Bridgeport Prospers, Bridgeport CT,41.1792402,-73.1894193,YBUSA,Arrowhead YouthBuild,"702 Third Avenue	Virginia	MN	55792",47.51762,-92.53375,1686.463787
Strive Together,Bridgeport Prospers, Bridgeport CT,41.1792402,-73.1894193,YBUSA,Asian Media Access,"2418 Plymouth Ave N	Minneapolis	MN	55411",44.99179,-93.31169,1683.86874
Strive Together,Bridgeport Prospers, Bridgeport CT,41.1792402,-73.1894193,YBUSA,Aurora YouthBuild,"1685 N Farnsworth Ave.	Aurora	IL	60505",41.791075,-88.281367,1257.762798
Strive Together,Bridgeport Prospers, Bridgeport CT,41.1792402,-73.1894193,YBUSA,Beloit Fresh Start,"20 Eclipse Center	Beloit	WI	53511",42.52033,-89.03186,1319.11176
Strive Together,Bridgeport Prospers, Bridgeport CT,41.1792402,-73.1894193,YBUSA,Benton Harbor YouthBuild,"315 East Main Street	Benton Harbor	MI	49022",42.11733,-86.45102,1106.042253
Strive Together,Bridgeport Prospers, Bridgeport CT,41.1792402,-73.1894193,YBUSA,Bethel YouthBuild,"1250 Portland Avenue	Chicago Heights	IL	60411",41.50823,-87.62403,1204.544894
Strive Together,Bridgeport Prospers, Bridgeport CT,41.1792402,-73.1894193,YBUSA,Bibb County School District,"2011 Riverside Dr.	Macon	GA	31204",32.856935,-83.643415,1309.162155
Strive Together,Bridgeport Prospers, Bridgeport CT,41.1792402,-73.1894193,YBUSA,BI-CAP YouthBuild,"3023 Mill St NE	Bemidji	MN	56601",47.46806,-94.83356,1851.183217
Strive Together,Bridgeport Prospers, Bridgeport CT,41.1792402,-73.1894193,YBUSA,Build With Pride,"4283 El Cajon Boulevard	San Diego	CA	92105",32.754885,-117.102191,3969.329261
Strive Together,Bridgeport Prospers, Bridgeport CT,41.1792402,-73.1894193,YBUSA,Building Futures YouthBuild,"5800 Godfrey Road	Godfrey	IL	62035",38.95288,-90.19333,1466.020142
Strive Together,Bright Futures for Monterey County, Seaside CA,36.6516548,-121.7977985,YBUSA,American YouthWorks,"1901 E. Ben White Bv	Austin	TX	78741",30.21537,-97.747365,2337.055257
Strive Together,Bright Futures for Monterey County, Seaside CA,36.6516548,-121.7977985,YBUSA,AMIkids Baton Rouge,"5555 Beechwood Drive	Baton Rouge	LA	70805",30.50109,-91.14448,2908.525422
Strive Together,Bright Futures for Monterey County, Seaside CA,36.6516548,-121.7977985,YBUSA,AMIkids Beaufort Inc.,"60 Honeybee Island Road	Seabrook	SC	29940",32.56899,-80.68511,3762.320764
Strive Together,Bright Futures for Monterey County, Seaside CA,36.6516548,-121.7977985,YBUSA,Antelope Valley YouthBuild,"38626 9th Street East	Palmdale	CA	93550",34.58539,-118.11403,404.6298017
Strive Together,Bright Futures for Monterey County, Seaside CA,36.6516548,-121.7977985,YBUSA,Arrowhead YouthBuild,"702 Third Avenue	Virginia	MN	55792",47.51762,-92.53375,2679.292845
Strive Together,Bright Futures for Monterey County, Seaside CA,36.6516548,-121.7977985,YBUSA,Asian Media Access,"2418 Plymouth Ave N	Minneapolis	MN	55411",44.99179,-93.31169,2554.554787
Strive Together,Bright Futures for Monterey County, Seaside CA,36.6516548,-121.7977985,YBUSA,Aurora YouthBuild,"1685 N Farnsworth Ave.	Aurora	IL	60505",41.791075,-88.281367,2924.839708
Strive Together,Bright Futures for Monterey County, Seaside CA,36.6516548,-121.7977985,YBUSA,Beloit Fresh Start,"20 Eclipse Center	Beloit	WI	53511",42.52033,-89.03186,2864.514877
Strive Together,Bright Futures for Monterey County, Seaside CA,36.6516548,-121.7977985,YBUSA,Benton Harbor YouthBuild,"315 East Main Street	Benton Harbor	MI	49022",42.11733,-86.45102,3076.118309
Strive Together,Bright Futures for Monterey County, Seaside CA,36.6516548,-121.7977985,YBUSA,Bethel YouthBuild,"1250 Portland Avenue	Chicago Heights	IL	60411",41.50823,-87.62403,2979.697583
Strive Together,Bright Futures for Monterey County, Seaside CA,36.6516548,-121.7977985,YBUSA,Bibb County School District,"2011 Riverside Dr.	Macon	GA	31204",32.856935,-83.643415,3489.320047
Strive Together,Bright Futures for Monterey County, Seaside CA,36.6516548,-121.7977985,YBUSA,BI-CAP YouthBuild,"3023 Mill St NE	Bemidji	MN	56601",47.46806,-94.83356,2512.712831
Strive Together,Bright Futures for Monterey County, Seaside CA,36.6516548,-121.7977985,YBUSA,Build With Pride,"4283 El Cajon Boulevard	San Diego	CA	92105",32.754885,-117.102191,609.9424074
Strive Together,Bright Futures for Monterey County, Seaside CA,36.6516548,-121.7977985,YBUSA,Building Futures YouthBuild,"5800 Godfrey Road	Godfrey	IL	62035",38.95288,-90.19333,2775.4302
